CCSDS_OMM_VERS = 2.0
CREATION_DATE  = 
ORIGINATOR     = 

OBJECT_NAME    = SL-14 R/B
OBJECT_ID      = 1986-046B
CENTER_NAME    = EARTH
REF_FRAME      = TEME
TIME_SYSTEM    = UTC
MEAN_ELEMENT_THEORY = SGP/SGP4

EPOCH          = 2026-03-03T03:20:23.671968
MEAN_MOTION    = 14.85582619
ECCENTRICITY   = .0021638
INCLINATION    = 82.4782
RA_OF_ASC_NODE = 86.3731
ARG_OF_PERICENTER = 248.2794
MEAN_ANOMALY   = 111.6119

EPHEMERIS_TYPE = 0
CLASSIFICATION_TYPE = U
NORAD_CAT_ID   = 16792
ELEMENT_SET_NO = 999
REV_AT_EPOCH   = 12543
BSTAR          = .60912E-4
MEAN_MOTION_DOT = .553E-5
MEAN_MOTION_DDOT = 0

CCSDS_OMM_VERS = 2.0
CREATION_DATE  = 
ORIGINATOR     = 

OBJECT_NAME    = SL-14 R/B
OBJECT_ID      = 1986-055B
CENTER_NAME    = EARTH
REF_FRAME      = TEME
TIME_SYSTEM    = UTC
MEAN_ELEMENT_THEORY = SGP/SGP4

EPOCH          = 2026-03-03T04:40:11.201376
MEAN_MOTION    = 14.85635447
ECCENTRICITY   = .0018747
INCLINATION    = 82.5212
RA_OF_ASC_NODE = 132.7786
ARG_OF_PERICENTER = 358.5028
MEAN_ANOMALY   = 21.3665

EPHEMERIS_TYPE = 0
CLASSIFICATION_TYPE = U
NORAD_CAT_ID   = 16882
ELEMENT_SET_NO = 999
REV_AT_EPOCH   = 11840
BSTAR          = .60035E-4
MEAN_MOTION_DOT = .545E-5
MEAN_MOTION_DDOT = 0

CCSDS_OMM_VERS = 2.0
CREATION_DATE  = 
ORIGINATOR     = 

OBJECT_NAME    = AJISAI (EGS)
OBJECT_ID      = 1986-061A
CENTER_NAME    = EARTH
REF_FRAME      = TEME
TIME_SYSTEM    = UTC
MEAN_ELEMENT_THEORY = SGP/SGP4

EPOCH          = 2026-03-03T04:55:44.488128
MEAN_MOTION    = 12.44515527
ECCENTRICITY   = .0011249
INCLINATION    = 50.0080
RA_OF_ASC_NODE = 113.2876
ARG_OF_PERICENTER = 270.2960
MEAN_ANOMALY   = 135.4771

EPHEMERIS_TYPE = 0
CLASSIFICATION_TYPE = U
NORAD_CAT_ID   = 16908
ELEMENT_SET_NO = 999
REV_AT_EPOCH   = 46719
BSTAR          = .14799E-3
MEAN_MOTION_DOT = -.76E-6
MEAN_MOTION_DDOT = 0

CCSDS_OMM_VERS = 2.0
CREATION_DATE  = 
ORIGINATOR     = 

OBJECT_NAME    = COSMOS 1812
OBJECT_ID      = 1987-003A
CENTER_NAME    = EARTH
REF_FRAME      = TEME
TIME_SYSTEM    = UTC
MEAN_ELEMENT_THEORY = SGP/SGP4

EPOCH          = 2026-03-03T07:26:14.907264
MEAN_MOTION    = 16.23100629
ECCENTRICITY   = .0007632
INCLINATION    = 82.4718
RA_OF_ASC_NODE = 202.9133
ARG_OF_PERICENTER = 288.9282
MEAN_ANOMALY   = 71.1181

EPHEMERIS_TYPE = 0
CLASSIFICATION_TYPE = U
NORAD_CAT_ID   = 17295
ELEMENT_SET_NO = 999
REV_AT_EPOCH   = 14345
BSTAR          = .75298E-3
MEAN_MOTION_DOT = .1811126E-1
MEAN_MOTION_DDOT = -.12154E-5

CCSDS_OMM_VERS = 2.0
CREATION_DATE  = 
ORIGINATOR     = 

OBJECT_NAME    = SL-14 R/B
OBJECT_ID      = 1987-024B
CENTER_NAME    = EARTH
REF_FRAME      = TEME
TIME_SYSTEM    = UTC
MEAN_ELEMENT_THEORY = SGP/SGP4

EPOCH          = 2026-03-03T04:11:56.176800
MEAN_MOTION    = 14.86124633
ECCENTRICITY   = .0016688
INCLINATION    = 82.5253
RA_OF_ASC_NODE = 98.8885
ARG_OF_PERICENTER = 283.4998
MEAN_ANOMALY   = 76.4359

EPHEMERIS_TYPE = 0
CLASSIFICATION_TYPE = U
NORAD_CAT_ID   = 17567
ELEMENT_SET_NO = 999
REV_AT_EPOCH   = 8716
BSTAR          = .58038E-4
MEAN_MOTION_DOT = .534E-5
MEAN_MOTION_DDOT = 0

CCSDS_OMM_VERS = 2.0
CREATION_DATE  = 
ORIGINATOR     = 

OBJECT_NAME    = COSMOS 1833
OBJECT_ID      = 1987-027A
CENTER_NAME    = EARTH
REF_FRAME      = TEME
TIME_SYSTEM    = UTC
MEAN_ELEMENT_THEORY = SGP/SGP4

EPOCH          = 2026-03-03T03:14:46.877856
MEAN_MOTION    = 14.13056165
ECCENTRICITY   = .0024562
INCLINATION    = 70.9233
RA_OF_ASC_NODE = 339.7933
ARG_OF_PERICENTER = 223.6095
MEAN_ANOMALY   = 136.3086

EPHEMERIS_TYPE = 0
CLASSIFICATION_TYPE = U
NORAD_CAT_ID   = 17589
ELEMENT_SET_NO = 999
REV_AT_EPOCH   = 939
BSTAR          = -.44246E-4
MEAN_MOTION_DOT = -.131E-5
MEAN_MOTION_DDOT = 0

CCSDS_OMM_VERS = 2.0
CREATION_DATE  = 
ORIGINATOR     = 

OBJECT_NAME    = SL-16 R/B
OBJECT_ID      = 1987-027B
CENTER_NAME    = EARTH
REF_FRAME      = TEME
TIME_SYSTEM    = UTC
MEAN_ELEMENT_THEORY = SGP/SGP4

EPOCH          = 2026-03-03T01:22:34.412736
MEAN_MOTION    = 14.17166526
ECCENTRICITY   = .0003734
INCLINATION    = 71.0020
RA_OF_ASC_NODE = 290.4721
ARG_OF_PERICENTER = 156.8780
MEAN_ANOMALY   = 203.2513

EPHEMERIS_TYPE = 0
CLASSIFICATION_TYPE = U
NORAD_CAT_ID   = 17590
ELEMENT_SET_NO = 999
REV_AT_EPOCH   = 1440
BSTAR          = -.6789E-4
MEAN_MOTION_DOT = -.185E-5
MEAN_MOTION_DDOT = 0

CCSDS_OMM_VERS = 2.0
CREATION_DATE  = 
ORIGINATOR     = 

OBJECT_NAME    = SL-14 R/B
OBJECT_ID      = 1987-038B
CENTER_NAME    = EARTH
REF_FRAME      = TEME
TIME_SYSTEM    = UTC
MEAN_ELEMENT_THEORY = SGP/SGP4

EPOCH          = 2026-03-03T03:59:52.122336
MEAN_MOTION    = 14.85362340
ECCENTRICITY   = .001911
INCLINATION    = 82.5014
RA_OF_ASC_NODE = 302.9529
ARG_OF_PERICENTER = 181.7294
MEAN_ANOMALY   = 178.3860

EPHEMERIS_TYPE = 0
CLASSIFICATION_TYPE = U
NORAD_CAT_ID   = 17912
ELEMENT_SET_NO = 999
REV_AT_EPOCH   = 7826
BSTAR          = .56822E-4
MEAN_MOTION_DOT = .514E-5
MEAN_MOTION_DDOT = 0

CCSDS_OMM_VERS = 2.0
CREATION_DATE  = 
ORIGINATOR     = 

OBJECT_NAME    = COSMOS 1844
OBJECT_ID      = 1987-041A
CENTER_NAME    = EARTH
REF_FRAME      = TEME
TIME_SYSTEM    = UTC
MEAN_ELEMENT_THEORY = SGP/SGP4

EPOCH          = 2026-03-03T04:15:26.907264
MEAN_MOTION    = 14.14553162
ECCENTRICITY   = .0029645
INCLINATION    = 70.8994
RA_OF_ASC_NODE = 47.9111
ARG_OF_PERICENTER = 27.6868
MEAN_ANOMALY   = 332.5824

EPHEMERIS_TYPE = 0
CLASSIFICATION_TYPE = U
NORAD_CAT_ID   = 17973
ELEMENT_SET_NO = 999
REV_AT_EPOCH   = 266
BSTAR          = -.16681E-4
MEAN_MOTION_DOT = -.81E-6
MEAN_MOTION_DDOT = 0

CCSDS_OMM_VERS = 2.0
CREATION_DATE  = 
ORIGINATOR     = 

OBJECT_NAME    = SL-14 R/B
OBJECT_ID      = 1987-055B
CENTER_NAME    = EARTH
REF_FRAME      = TEME
TIME_SYSTEM    = UTC
MEAN_ELEMENT_THEORY = SGP/SGP4

EPOCH          = 2026-03-02T21:00:21.927456
MEAN_MOTION    = 14.85619377
ECCENTRICITY   = .0021702
INCLINATION    = 82.5028
RA_OF_ASC_NODE = 355.4518
ARG_OF_PERICENTER = 39.5602
MEAN_ANOMALY   = 320.7193

EPHEMERIS_TYPE = 0
CLASSIFICATION_TYPE = U
NORAD_CAT_ID   = 18153
ELEMENT_SET_NO = 999
REV_AT_EPOCH   = 6892
BSTAR          = .77938E-4
MEAN_MOTION_DOT = .702E-5
MEAN_MOTION_DDOT = 0

CCSDS_OMM_VERS = 2.0
CREATION_DATE  = 
ORIGINATOR     = 

OBJECT_NAME    = COSMOS 1867
OBJECT_ID      = 1987-060A
CENTER_NAME    = EARTH
REF_FRAME      = TEME
TIME_SYSTEM    = UTC
MEAN_ELEMENT_THEORY = SGP/SGP4

EPOCH          = 2026-03-03T03:41:22.184736
MEAN_MOTION    = 14.31501790
ECCENTRICITY   = .0014388
INCLINATION    = 65.0120
RA_OF_ASC_NODE = 325.0088
ARG_OF_PERICENTER = 278.2415
MEAN_ANOMALY   = 81.7037

EPHEMERIS_TYPE = 0
CLASSIFICATION_TYPE = U
NORAD_CAT_ID   = 18187
ELEMENT_SET_NO = 999
REV_AT_EPOCH   = 1900
BSTAR          = .4014E-4
MEAN_MOTION_DOT = .7E-7
MEAN_MOTION_DDOT = 0

CCSDS_OMM_VERS = 2.0
CREATION_DATE  = 
ORIGINATOR     = 

OBJECT_NAME    = SL-14 R/B
OBJECT_ID      = 1988-001B
CENTER_NAME    = EARTH
REF_FRAME      = TEME
TIME_SYSTEM    = UTC
MEAN_ELEMENT_THEORY = SGP/SGP4

EPOCH          = 2026-03-02T20:52:54.108480
MEAN_MOTION    = 14.85517506
ECCENTRICITY   = .0016597
INCLINATION    = 82.5141
RA_OF_ASC_NODE = 201.7729
ARG_OF_PERICENTER = 260.1534
MEAN_ANOMALY   = 99.7809

EPHEMERIS_TYPE = 0
CLASSIFICATION_TYPE = U
NORAD_CAT_ID   = 18749
ELEMENT_SET_NO = 999
REV_AT_EPOCH   = 4101
BSTAR          = .78558E-4
MEAN_MOTION_DOT = .703E-5
MEAN_MOTION_DDOT = 0

