SL-14 R/B               
1 16792U 86046B   26062.13916287  .00000553  00000+0  60912-4 0  9996
2 16792  82.4782  86.3731 0021638 248.2794 111.6119 14.85582619125436
SL-14 R/B               
1 16882U 86055B   26062.19457409  .00000545  00000+0  60035-4 0  9995
2 16882  82.5212 132.7786 0018747 358.5028  21.3665 14.85635447118403
AJISAI (EGS)            
1 16908U 86061A   26062.20537602 -.00000076  00000+0  14799-3 0  9992
2 16908  50.0080 113.2876 0011249 270.2960 135.4771 12.44515527467191
COSMOS 1812             
1 17295U 87003A   26062.30989476  .01811126 -12154-5  75298-3 0  9997
2 17295  82.4718 202.9133 0007632 288.9282  71.1181 16.23100629143459
SL-14 R/B               
1 17567U 87024B   26062.17495575  .00000534  00000+0  58038-4 0  9995
2 17567  82.5253  98.8885 0016688 283.4998  76.4359 14.86124633 87165
COSMOS 1833             
1 17589U 87027A   26062.13526479 -.00000131  00000+0 -44246-4 0  9997
2 17589  70.9233 339.7933 0024562 223.6095 136.3086 14.13056165  9399
SL-16 R/B               
1 17590U 87027B   26062.05734274 -.00000185  00000+0 -67890-4 0  9993
2 17590  71.0020 290.4721 0003734 156.8780 203.2513 14.17166526 14405
SL-14 R/B               
1 17912U 87038B   26062.16657549  .00000514  00000+0  56822-4 0  9991
2 17912  82.5014 302.9529 0019110 181.7294 178.3860 14.85362340 78268
COSMOS 1844             
1 17973U 87041A   26062.17739476 -.00000081  00000+0 -16681-4 0  9993
2 17973  70.8994  47.9111 0029645  27.6868 332.5824 14.14553162  2665
SL-14 R/B               
1 18153U 87055B   26061.87525379  .00000702  00000+0  77938-4 0  9990
2 18153  82.5028 355.4518 0021702  39.5602 320.7193 14.85619377 68924
COSMOS 1867             
1 18187U 87060A   26062.15372899  .00000007  00000+0  40140-4 0  9995
2 18187  65.0120 325.0088 0014388 278.2415  81.7037 14.31501790 19007
SL-14 R/B               
1 18749U 88001B   26061.87007070  .00000703  00000+0  78558-4 0  9996
2 18749  82.5141 201.7729 0016597 260.1534  99.7809 14.85517506 41019
